NORAD_CAT_ID,OBJECT_NAME,OBJECT_TYPE,EPOCH,MEAN_MOTION,ECCENTRICITY,INCLINATION,RA_OF_ASC_NODE,ARG_OF_PERICENTER,MEAN_ANOMALY,BSTAR,MEAN_MOTION_DOT,MEAN_MOTION_DDOT,TLE_LINE0,TLE_LINE1,TLE_LINE2,SEMIMAJOR_AXIS,PERIOD,APOGEE,PERIGEE,DECAYED
54788.0,STARLINK-5399,PAYLOAD,2023-05-23 03:36:14,15.0884443,5.12e-05,53.2144,294.8572,92.0549,268.0502,0.00036792,5.573e-05,0.0,0 STARLINK-5399,1 54788U 22175AG  23143.15016705  .00005573  00000-0  36792-3 0  9997,2 54788  53.2144 294.8572 0000512  92.0549 268.0502 15.08844430 23754,6917.867,95.437,540.086,539.378,0.0
54788.0,STARLINK-5399,PAYLOAD,2023-05-23 16:19:19,15.08838391,9.04e-05,53.2165,292.477,98.1796,261.9299,0.00020081,2.909e-05,0.0,0 STARLINK-5399,1 54788U 22175AG  23143.68009245  .00002909  00000-0  20081-3 0  9990,2 54788  53.2165 292.4770 0000904  98.1796 261.9299 15.08838391 23830,6917.885,95.438,540.376,539.125,0.0
54788.0,STARLINK-5399,PAYLOAD,2023-05-24 14:34:43,15.08844536,9.5e-05,53.217,288.3145,90.6574,269.4526,9.4353e-05,1.214e-05,0.0,0 STARLINK-5399,1 54788U 22175AG  23144.60744994  .00001214  00000-0  94353-4 0  9992,2 54788  53.2170 288.3145 0000950  90.6574 269.4526 15.08844536 26138,6917.867,95.437,540.389,539.074,0.0
54788.0,STARLINK-5399,PAYLOAD,2023-05-25 14:25:30,15.08845215,8.92e-05,53.2169,283.8543,81.9695,278.1398,0.00021123,3.076e-05,0.0,0 STARLINK-5399,1 54788U 22175AG  23145.60104915  .00003076  00000-0  21123-3 0  9998,2 54788  53.2169 283.8543 0000892  81.9695 278.1398 15.08845215 26285,6917.864,95.437,540.347,539.112,0.0
54788.0,STARLINK-5399,PAYLOAD,2023-05-26 12:40:54,15.0884113,8.75e-05,53.2167,279.6922,75.0779,285.031,6.7191e-05,7.82e-06,0.0,0 STARLINK-5399,1 54788U 22175AG  23146.52840972  .00000782  00000-0  67191-4 0  9997,2 54788  53.2167 279.6922 0000875  75.0779 285.0310 15.08841130 26424,6917.877,95.437,540.347,539.137,0.0
54788.0,STARLINK-5399,PAYLOAD,2023-05-26 15:51:40,15.08842935,9.26e-05,53.2174,279.0983,88.5583,271.5515,7.5636e-05,9.16e-06,0.0,0 STARLINK-5399,1 54788U 22175AG  23146.66088817  .00000916  00000-0  75636-4 0  9996,2 54788  53.2174 279.0983 0000926  88.5583 271.5515 15.08842935 26445,6917.871,95.437,540.377,539.096,0.0
54788.0,STARLINK-5399,PAYLOAD,2023-05-27 07:45:32,15.08837549,9.75e-05,53.2181,276.1239,93.8602,266.2502,3.8399e-05,3.23e-06,0.0,0 STARLINK-5399,1 54788U 22175AG  23147.32329311  .00000323  00000-0  38399-4 0  9994,2 54788  53.2181 276.1239 0000975  93.8602 266.2502 15.08837549 24383,6917.888,95.438,540.427,539.078,0.0
54788.0,STARLINK-5399,PAYLOAD,2023-05-27 15:42:28,15.08837259,9.5e-05,53.2183,274.637,97.9982,262.1117,1.8517e-05,7e-08,0.0,0 STARLINK-5399,1 54788U 22175AG  23147.65449363  .00000007  00000-0  18517-4 0  9999,2 54788  53.2183 274.6370 0000950  97.9982 262.1117 15.08837259 26593,6917.889,95.438,540.411,539.097,0.0
54788.0,STARLINK-5399,PAYLOAD,2023-05-28 01:14:47,15.08836637,9.21e-05,53.2184,272.8529,95.3183,264.7915,5.0475e-05,5.16e-06,0.0,0 STARLINK-5399,1 54788U 22175AG  23148.05193384  .00000516  00000-0  50475-4 0  9997,2 54788  53.2184 272.8529 0000921  95.3183 264.7915 15.08836637 26653,6917.891,95.438,540.393,539.119,0.0
54788.0,STARLINK-5399,PAYLOAD,2023-05-28 17:08:37,15.08846822,8.49e-05,53.2175,269.8791,86.9317,273.1772,0.00011563,1.553e-05,0.0,0 STARLINK-5399,1 54788U 22175AG  23148.71432659  .00001553  00000-0  11563-3 0  9997,2 54788  53.2175 269.8791 0000849  86.9317 273.1772 15.08846822 24597,6917.86,95.437,540.312,539.137,0.0
54788.0,STARLINK-5399,PAYLOAD,2023-05-29 01:05:33,15.08837714,7.66e-05,53.2173,268.393,101.4536,258.6542,0.00016603,2.356e-05,0.0,0 STARLINK-5399,1 54788U 22175AG  23149.04553124  .00002356  00000-0  16603-3 0  9997,2 54788  53.2173 268.3930 0000766 101.4536 258.6542 15.08837714 24647,6917.887,95.438,540.282,539.222,0.0
54788.0,STARLINK-5399,PAYLOAD,2023-05-29 13:48:39,15.08839543,7.82e-05,53.2173,266.0138,94.1482,265.9599,9.2502e-05,1.185e-05,0.0,0 STARLINK-5399,1 54788U 22175AG  23149.57545182  .00001185  00000-0  92502-4 0  9992,2 54788  53.2173 266.0138 0000782  94.1482 265.9599 15.08839543 26881,6917.882,95.438,540.288,539.206,0.0
54788.0,STARLINK-5399,PAYLOAD,2023-05-29 15:24:02,15.08841558,8.03e-05,53.2174,265.7164,92.9751,267.1333,0.00010768,1.427e-05,0.0,0 STARLINK-5399,1 54788U 22175AG  23149.64169025  .00001427  00000-0  10768-3 0  9990,2 54788  53.2174 265.7164 0000803  92.9751 267.1333 15.08841558 26896,6917.876,95.437,540.296,539.185,0.0
54788.0,STARLINK-5399,PAYLOAD,2023-05-30 12:04:03,15.08836582,8.15e-05,53.2176,261.8506,80.7743,279.3341,3.1937e-05,2.21e-06,0.0,0 STARLINK-5399,1 54788U 22175AG  23150.50281628  .00000221  00000-0  31937-4 0  9994,2 54788  53.2176 261.8506 0000815  80.7743 279.3341 15.08836582 27025,6917.891,95.438,540.32,539.192,0.0
54788.0,STARLINK-5399,PAYLOAD,2023-05-30 13:39:26,15.08840761,8.78e-05,53.2174,261.5527,80.1413,279.9679,-2.7479e-05,-7.25e-06,0.0,0 STARLINK-5399,1 54788U 22175AG  23150.56905567 -.00000725  00000-0 -27479-4 0  9992,2 54788  53.2174 261.5527 0000878  80.1413 279.9679 15.08840761 24874,6917.878,95.438,540.35,539.136,0.0
54788.0,STARLINK-5399,PAYLOAD,2023-05-31 13:30:13,15.08843086,0.0001023,53.2178,257.0936,72.2789,287.8315,6.4802e-05,7.44e-06,0.0,0 STARLINK-5399,1 54788U 22175AG  23151.56265183  .00000744  00000-0  64802-4 0  9996,2 54788  53.2178 257.0936 0001023  72.2789 287.8315 15.08843086 27188,6917.871,95.437,540.444,539.028,0.0
54788.0,STARLINK-5399,PAYLOAD,2023-06-01 00:37:55,15.08841975,0.0001039,53.2181,255.012,72.5828,287.5277,7.9581e-05,9.79e-06,0.0,0 STARLINK-5399,1 54788U 22175AG  23152.02633161  .00000979  00000-0  79581-4 0  9993,2 54788  53.2181 255.0120 0001039  72.5828 287.5277 15.08841975 25096,6917.874,95.437,540.458,539.021,0.0
54788.0,STARLINK-5399,PAYLOAD,2023-06-01 10:10:14,15.08838313,0.000106,53.2178,253.2283,71.4064,288.7044,7.8905e-05,9.68e-06,0.0,0 STARLINK-5399,1 54788U 22175AG  23152.42377443  .00000968  00000-0  78905-4 0  9992,2 54788  53.2178 253.2283 0001060  71.4064 288.7044 15.08838313 27310,6917.886,95.438,540.484,539.017,0.0
54788.0,STARLINK-5399,PAYLOAD,2023-06-02 10:01:02,15.08807379,7.86e-05,53.2174,248.7673,89.3163,270.7919,0.00039007,5.92e-05,0.0,0 STARLINK-5399,1 54788U 22175AG  23153.41738656  .00005920  00000-0  39007-3 0  9991,2 54788  53.2174 248.7673 0000786  89.3163 270.7919 15.08807379 25307,6917.98,95.44,540.389,539.301,0.0
54788.0,STARLINK-5399,PAYLOAD,2023-06-02 13:11:47,15.08835764,7.97e-05,53.2167,248.1722,94.469,265.6393,-1.2565e-05,-4.88e-06,0.0,0 STARLINK-5399,1 54788U 22175AG  23153.54985897 -.00000488  00000-0 -12565-4 0  9993,2 54788  53.2167 248.1722 0000797  94.4690 265.6393 15.08835764 27481,6917.893,95.438,540.31,539.207,0.0
54788.0,STARLINK-5399,PAYLOAD,2023-06-02 16:22:33,15.08837832,8.07e-05,53.2167,247.5767,100.4748,259.6335,-2.0668e-06,-3.21e-06,0.0,0 STARLINK-5399,1 54788U 22175AG  23153.68233720 -.00000321  00000-0 -20668-5 0  9999,2 54788  53.2167 247.5767 0000807 100.4748 259.6335 15.08837832 25347,6917.887,95.438,540.31,539.194,0.0
54788.0,STARLINK-5399,PAYLOAD,2023-06-03 09:51:48,15.08832406,8.26e-05,53.2166,244.3054,101.8267,258.2817,-1.4034e-05,-5.11e-06,0.0,0 STARLINK-5399,1 54788U 22175AG  23154.41098370 -.00000511  00000-0 -14034-4 0  9991,2 54788  53.2166 244.3054 0000826 101.8267 258.2817 15.08832406 25456,6917.904,95.438,540.34,539.197,0.0
54788.0,STARLINK-5399,PAYLOAD,2023-06-03 13:02:35,15.08834858,8.12e-05,53.2168,243.7105,96.3141,263.7944,-8.1979e-06,-4.18e-06,0.0,0 STARLINK-5399,1 54788U 22175AG  23154.54346246 -.00000418  00000-0 -81979-5 0  9992,2 54788  53.2168 243.7105 0000812  96.3141 263.7944 15.08834858 27639,6917.896,95.438,540.323,539.199,0.0
54788.0,STARLINK-5399,PAYLOAD,2023-06-04 09:42:35,15.08839282,7.5e-05,53.2164,239.846,93.852,266.2558,0.00010951,1.456e-05,0.0,0 STARLINK-5399,1 54788U 22175AG  23155.40457806  .00001456  00000-0  10951-3 0  9994,2 54788  53.2164 239.8460 0000750  93.8520 266.2558 15.08839282 25609,6917.883,95.438,540.266,539.229,0.0
54788.0,STARLINK-5399,PAYLOAD,2023-06-04 11:17:58,15.08839883,7.54e-05,53.2164,239.5487,93.3766,266.7312,0.00011317,1.514e-05,0.0,0 STARLINK-5399,1 54788U 22175AG  23155.47081754  .00001514  00000-0  11317-3 0  9998,2 54788  53.2164 239.5487 0000754  93.3766 266.7312 15.08839883 27776,6917.881,95.438,540.267,539.224,0.0
54788.0,STARLINK-5399,PAYLOAD,2023-06-04 16:04:07,15.08844647,7.88e-05,53.2164,238.6563,96.0279,264.0802,0.00014762,2.063e-05,0.0,0 STARLINK-5399,1 54788U 22175AG  23155.66953327  .00002063  00000-0  14762-3 0  9990,2 54788  53.2164 238.6563 0000788  96.0279 264.0802 15.08844647 27800,6917.866,95.437,540.276,539.186,0.0
54788.0,STARLINK-5399,PAYLOAD,2023-06-05 04:47:13,15.08835786,8.33e-05,53.2169,236.2756,95.069,265.0397,3.9315e-05,3.38e-06,0.0,0 STARLINK-5399,1 54788U 22175AG  23156.19946286  .00000338  00000-0  39315-4 0  9990,2 54788  53.2169 236.2756 0000833  95.0690 265.0397 15.08835786 25723,6917.893,95.438,540.335,539.182,0.0
54788.0,STARLINK-5399,PAYLOAD,2023-06-05 12:44:08,15.0884203,7.66e-05,53.217,234.7898,95.0601,265.0479,9.2442e-05,1.184e-05,0.0,0 STARLINK-5399,1 54788U 22175AG  23156.53065776  .00001184  00000-0  92442-4 0  9994,2 54788  53.2170 234.7898 0000766  95.0601 265.0479 15.08842030 27938,6917.874,95.437,540.269,539.209,0.0
54788.0,STARLINK-5399,PAYLOAD,2023-06-05 14:19:31,15.08843573,7.81e-05,53.217,234.4923,91.3805,268.7277,0.00010257,1.345e-05,0.0,0 STARLINK-5399,1 54788U 22175AG  23156.59689657  .00001345  00000-0  10257-3 0  9992,2 54788  53.2170 234.4923 0000781  91.3805 268.7277 15.08843573 27946,6917.869,95.437,540.275,539.194,0.0
54788.0,STARLINK-5399,PAYLOAD,2023-06-06 07:48:46,15.08838855,8.83e-05,53.2171,231.2213,83.3832,276.7261,-1.3103e-05,-4.96e-06,0.0,0 STARLINK-5399,1 54788U 22175AG  23157.32554352 -.00000496  00000-0 -13103-4 0  9999,2 54788  53.2171 231.2213 0000883  83.3832 276.7261 15.08838855 25899,6917.884,95.438,540.36,539.138,0.0
